{"type": "FeatureCollection", "features": [{"type": "Feature", "properties": {"norad_id": 26766, "name": "INTELSAT 10 (IS-10)", "group": "intelsat", "lat": 5.941022920565183, "lon": -162.16300935442604, "alt_km": 36124.43252333185, "timestamp": "2025-12-17T23:38:06.530168+00:00", "meta": {"OBJECT_NAME": "INTELSAT 10 (IS-10)", "OBJECT_ID": "2001-019A", "EPOCH": "2025-12-17T14:32:02.416128", "MEAN_MOTION": 0.99076648, "ECCENTRICITY": 0.0007685, "INCLINATION": 8.6407, "RA_OF_ASC_NODE": 61.1084, "ARG_OF_PERICENTER": 227.8035, "MEAN_ANOMALY": 133.4266, "EPHEMERIS_TYPE": 0, "CLASSIFICATION_TYPE": "U", "NORAD_CAT_ID": 26766, "ELEMENT_SET_NO": 999, "REV_AT_EPOCH": 4378, "BSTAR": 0, "MEAN_MOTION_DOT": -1.89e-06, "MEAN_MOTION_DDOT": 0}, "tle": {"line1": "1 26766U 01019A   25351.60558352 -.00000189  00000+0  00000+0 0  9995", "line2": "2 26766   8.6407  61.1084 0007685 227.8035 133.4266  0.99076648 43783"}}, "geometry": {"type": "Point", "coordinates": [-162.16300935442604, 5.941022920565183]}}, {"type": "Feature", "properties": {"norad_id": 26900, "name": "INTELSAT 902 (IS-902)", "group": "intelsat", "lat": -3.8204235677380542, "lon": 31.439756864118877, "alt_km": 35798.748517268104, "timestamp": "2025-12-17T23:38:06.530192+00:00", "meta": {"OBJECT_NAME": "INTELSAT 902 (IS-902)", "OBJECT_ID": "2001-039A", "EPOCH": "2025-12-15T13:09:02.081664", "MEAN_MOTION": 1.0027087, "ECCENTRICITY": 0.00045028, "INCLINATION": 5.6536, "RA_OF_ASC_NODE": 74.0372, "ARG_OF_PERICENTER": 189.6359, "MEAN_ANOMALY": 327.9329, "EPHEMERIS_TYPE": 0, "CLASSIFICATION_TYPE": "U", "NORAD_CAT_ID": 26900, "ELEMENT_SET_NO": 999, "REV_AT_EPOCH": 8885, "BSTAR": 0, "MEAN_MOTION_DOT": -2.65e-06, "MEAN_MOTION_DDOT": 0}, "tle": {"line1": "1 26900U 01039A   25349.54794076 -.00000265  00000+0  00000+0 0  9997", "line2": "2 26900   5.6536  74.0372 0004502 189.6359 327.9329  1.00270870 88858"}}, "geometry": {"type": "Point", "coordinates": [31.439756864118877, -3.8204235677380542]}}, {"type": "Feature", "properties": {"norad_id": 27380, "name": "INTELSAT 904 (IS-904)", "group": "intelsat", "lat": -2.3434630978204547, "lon": 50.01945060527474, "alt_km": 35787.08771405377, "timestamp": "2025-12-17T23:38:06.530208+00:00", "meta": {"OBJECT_NAME": "INTELSAT 904 (IS-904)", "OBJECT_ID": "2002-007A", "EPOCH": "2025-12-17T02:54:07.486272", "MEAN_MOTION": 1.00271932, "ECCENTRICITY": 0.00016548, "INCLINATION": 6.4651, "RA_OF_ASC_NODE": 71.3825, "ARG_OF_PERICENTER": 243.3413, "MEAN_ANOMALY": 143.3108, "EPHEMERIS_TYPE": 0, "CLASSIFICATION_TYPE": "U", "NORAD_CAT_ID": 27380, "ELEMENT_SET_NO": 999, "REV_AT_EPOCH": 4994, "BSTAR": 0, "MEAN_MOTION_DOT": -2.06e-06, "MEAN_MOTION_DDOT": 0}, "tle": {"line1": "1 27380U 02007A   25351.12091998 -.00000206  00000+0  00000+0 0  9991", "line2": "2 27380   6.4651  71.3825 0001654 243.3413 143.3108  1.00271932 49947"}}, "geometry": {"type": "Point", "coordinates": [50.01945060527474, -2.3434630978204547]}}, {"type": "Feature", "properties": {"norad_id": 27426, "name": "DIRECTV 5 (TEMPO 1)", "group": "intelsat", "lat": -4.24710004374462, "lon": -28.753960389208608, "alt_km": 35776.89454400185, "timestamp": "2025-12-17T23:38:06.530223+00:00", "meta": {"OBJECT_NAME": "DIRECTV 5 (TEMPO 1)", "OBJECT_ID": "2002-023A", "EPOCH": "2025-12-17T12:05:06.962784", "MEAN_MOTION": 1.0027269, "ECCENTRICITY": 0.00033946, "INCLINATION": 4.4138, "RA_OF_ASC_NODE": 77.5982, "ARG_OF_PERICENTER": 205.1809, "MEAN_ANOMALY": 234.7633, "EPHEMERIS_TYPE": 0, "CLASSIFICATION_TYPE": "U", "NORAD_CAT_ID": 27426, "ELEMENT_SET_NO": 999, "REV_AT_EPOCH": 8630, "BSTAR": 0, "MEAN_MOTION_DOT": -3.6e-07, "MEAN_MOTION_DDOT": 0}, "tle": {"line1": "1 27426U 02023A   25351.50355281 -.00000036  00000+0  00000+0 0  9991", "line2": "2 27426   4.4138  77.5982 0003394 205.1809 234.7633  1.00272690 86307"}}, "geometry": {"type": "Point", "coordinates": [-28.753960389208608, -4.24710004374462]}}, {"type": "Feature", "properties": {"norad_id": 27438, "name": "INTELSAT 905 (IS-905)", "group": "intelsat", "lat": -4.997341706738594, "lon": -55.91943696132186, "alt_km": 35775.96327557717, "timestamp": "2025-12-17T23:38:06.530236+00:00", "meta": {"OBJECT_NAME": "INTELSAT 905 (IS-905)", "OBJECT_ID": "2002-027A", "EPOCH": "2025-12-14T04:33:38.635200", "MEAN_MOTION": 1.00274201, "ECCENTRICITY": 0.00026501, "INCLINATION": 6.2894, "RA_OF_ASC_NODE": 72.0398, "ARG_OF_PERICENTER": 202.1249, "MEAN_ANOMALY": 100.1717, "EPHEMERIS_TYPE": 0, "CLASSIFICATION_TYPE": "U", "NORAD_CAT_ID": 27438, "ELEMENT_SET_NO": 999, "REV_AT_EPOCH": 4950, "BSTAR": 0, "MEAN_MOTION_DOT": 1.08e-06, "MEAN_MOTION_DDOT": 0}, "tle": {"line1": "1 27438U 02027A   25348.19003050  .00000108  00000+0  00000+0 0  9992", "line2": "2 27438   6.2894  72.0398 0002650 202.1249 100.1717  1.00274201 49509"}}, "geometry": {"type": "Point", "coordinates": [-55.91943696132186, -4.997341706738594]}}, {"type": "Feature", "properties": {"norad_id": 27445, "name": "GALAXY 3C (G-3C)", "group": "intelsat", "lat": -3.2707692819986423, "lon": -13.494343012537577, "alt_km": 35791.03398063317, "timestamp": "2025-12-17T23:38:06.530249+00:00", "meta": {"OBJECT_NAME": "GALAXY 3C (G-3C)", "OBJECT_ID": "2002-030A", "EPOCH": "2025-12-17T11:59:34.058400", "MEAN_MOTION": 1.00272082, "ECCENTRICITY": 0.00011011, "INCLINATION": 3.2753, "RA_OF_ASC_NODE": 80.4579, "ARG_OF_PERICENTER": 79.2626, "MEAN_ANOMALY": 11.685, "EPHEMERIS_TYPE": 0, "CLASSIFICATION_TYPE": "U", "NORAD_CAT_ID": 27445, "ELEMENT_SET_NO": 999, "REV_AT_EPOCH": 4467, "BSTAR": 0, "MEAN_MOTION_DOT": -1.3e-06, "MEAN_MOTION_DDOT": 0}, "tle": {"line1": "1 27445U 02030A   25351.49969975 -.00000130  00000+0  00000+0 0  9994", "line2": "2 27445   3.2753  80.4579 0001101  79.2626  11.6850  1.00272082 44676"}}, "geometry": {"type": "Point", "coordinates": [-13.494343012537577, -3.2707692819986423]}}, {"type": "Feature", "properties": {"norad_id": 27513, "name": "INTELSAT 906 (IS-906)", "group": "intelsat", "lat": 5.041291804686914, "lon": 145.36571346980602, "alt_km": 35800.93288532784, "timestamp": "2025-12-17T23:38:06.530261+00:00", "meta": {"OBJECT_NAME": "INTELSAT 906 (IS-906)", "OBJECT_ID": "2002-041A", "EPOCH": "2025-12-17T08:29:43.757088", "MEAN_MOTION": 1.00272337, "ECCENTRICITY": 0.00062852, "INCLINATION": 5.341, "RA_OF_ASC_NODE": 75.1769, "ARG_OF_PERICENTER": 196.4812, "MEAN_ANOMALY": 6.1313, "EPHEMERIS_TYPE": 0, "CLASSIFICATION_TYPE": "U", "NORAD_CAT_ID": 27513, "ELEMENT_SET_NO": 999, "REV_AT_EPOCH": 8520, "BSTAR": 0, "MEAN_MOTION_DOT": 3.3e-07, "MEAN_MOTION_DDOT": 0}, "tle": {"line1": "1 27513U 02041A   25351.35397867  .00000033  00000+0  00000+0 0  9993", "line2": "2 27513   5.3410  75.1769 0006285 196.4812   6.1313  1.00272337 85204"}}, "geometry": {"type": "Point", "coordinates": [145.36571346980602, 5.041291804686914]}}, {"type": "Feature", "properties": {"norad_id": 27954, "name": "GALAXY 13 (HORIZONS-1)", "group": "intelsat", "lat": -0.42292132156997736, "lon": -68.6105376235735, "alt_km": 35777.70763717715, "timestamp": "2025-12-17T23:38:06.530274+00:00", "meta": {"OBJECT_NAME": "GALAXY 13 (HORIZONS-1)", "OBJECT_ID": "2003-044A", "EPOCH": "2025-12-17T14:19:31.802304", "MEAN_MOTION": 1.00273714, "ECCENTRICITY": 0.0002098, "INCLINATION": 0.9487, "RA_OF_ASC_NODE": 86.4092, "ARG_OF_PERICENTER": 176.88, "MEAN_ANOMALY": 248.0721, "EPHEMERIS_TYPE": 0, "CLASSIFICATION_TYPE": "U", "NORAD_CAT_ID": 27954, "ELEMENT_SET_NO": 999, "REV_AT_EPOCH": 4475, "BSTAR": 0, "MEAN_MOTION_DOT": 1.57e-06, "MEAN_MOTION_DDOT": 0}, "tle": {"line1": "1 27954U 03044A   25351.59689586  .00000157  00000+0  00000+0 0  9991", "line2": "2 27954   0.9487  86.4092 0002098 176.8800 248.0721  1.00273714 44754"}}, "geometry": {"type": "Point", "coordinates": [-68.6105376235735, -0.42292132156997736]}}, {"type": "Feature", "properties": {"norad_id": 28358, "name": "INTELSAT 10-02", "group": "intelsat", "lat": 0.020731388390014593, "lon": 80.41397108775675, "alt_km": 35789.20951830284, "timestamp": "2025-12-17T23:38:06.530285+00:00", "meta": {"OBJECT_NAME": "INTELSAT 10-02", "OBJECT_ID": "2004-022A", "EPOCH": "2025-12-17T13:19:07.586688", "MEAN_MOTION": 1.00271129, "ECCENTRICITY": 9.362e-05, "INCLINATION": 0.0224, "RA_OF_ASC_NODE": 69.842, "ARG_OF_PERICENTER": 232.2635, "MEAN_ANOMALY": 343.1449, "EPHEMERIS_TYPE": 0, "CLASSIFICATION_TYPE": "U", "NORAD_CAT_ID": 28358, "ELEMENT_SET_NO": 999, "REV_AT_EPOCH": 7873, "BSTAR": 0, "MEAN_MOTION_DOT": 1.4e-07, "MEAN_MOTION_DDOT": 0}, "tle": {"line1": "1 28358U 04022A   25351.55494892  .00000014  00000+0  00000+0 0  9999", "line2": "2 28358   0.0224  69.8420 0000936 232.2635 343.1449  1.00271129 78732"}}, "geometry": {"type": "Point", "coordinates": [80.41397108775675, 0.020731388390014593]}}, {"type": "Feature", "properties": {"norad_id": 28626, "name": "XM-3 (RHYTHM)", "group": "intelsat", "lat": 0.18283869590791865, "lon": 170.76116219868624, "alt_km": 36168.168414782056, "timestamp": "2025-12-17T23:38:06.530297+00:00", "meta": {"OBJECT_NAME": "XM-3 (RHYTHM)", "OBJECT_ID": "2005-008A", "EPOCH": "2025-12-17T13:45:35.052768", "MEAN_MOTION": 0.98950576, "ECCENTRICITY": 0.00018102, "INCLINATION": 0.1869, "RA_OF_ASC_NODE": 81.8659, "ARG_OF_PERICENTER": 277.4858, "MEAN_ANOMALY": 24.8387, "EPHEMERIS_TYPE": 0, "CLASSIFICATION_TYPE": "U", "NORAD_CAT_ID": 28626, "ELEMENT_SET_NO": 999, "REV_AT_EPOCH": 4079, "BSTAR": 0, "MEAN_MOTION_DOT": 9e-08, "MEAN_MOTION_DDOT": 0}, "tle": {"line1": "1 28626U 05008A   25351.57332237  .00000009  00000+0  00000+0 0  9992", "line2": "2 28626   0.1869  81.8659 0001810 277.4858  24.8387  0.98950576 40799"}}, "geometry": {"type": "Point", "coordinates": [170.76116219868624, 0.18283869590791865]}}]}